NORAD_CAT_ID,OBJECT_NAME,OBJECT_TYPE,EPOCH,MEAN_MOTION,ECCENTRICITY,INCLINATION,RA_OF_ASC_NODE,ARG_OF_PERICENTER,MEAN_ANOMALY,BSTAR,MEAN_MOTION_DOT,MEAN_MOTION_DDOT,TLE_LINE0,TLE_LINE1,TLE_LINE2,SEMIMAJOR_AXIS,PERIOD,APOGEE,PERIGEE,DECAYED
52469.0,STARLINK-3828,PAYLOAD,2023-06-06 01:55:05,15.08836392,0.0001139,53.2171,262.4565,74.1397,285.972,0.00014265,1.983e-05,0.0,0 STARLINK-3828,1 52469U 22049U   23157.07992133  .00001983  00000-0  14265-3 0  9997,2 52469  53.2171 262.4565 0001139  74.1397 285.9720 15.08836392 60297,6917.891,95.438,540.544,538.968,0.0
52469.0,STARLINK-3828,PAYLOAD,2023-06-06 11:27:23,15.08841162,9.73e-05,53.217,260.6724,80.2706,279.8396,9.1738e-05,1.173e-05,0.0,0 STARLINK-3828,1 52469U 22049U   23157.47735817  .00001173  00000-0  91738-4 0  9997,2 52469  53.2170 260.6724 0000973  80.2706 279.8396 15.08841162 60191,6917.877,95.437,540.415,539.069,0.0
52469.0,STARLINK-3828,PAYLOAD,2023-06-06 14:38:09,15.08849197,9.99e-05,53.217,260.0776,80.0324,280.0781,7.5789e-05,9.19e-06,0.0,0 STARLINK-3828,1 52469U 22049U   23157.60983299  .00000919  00000-0  75789-4 0  9996,2 52469  53.2170 260.0776 0000999  80.0324 280.0781 15.08849197 60372,6917.852,95.437,540.408,539.026,0.0
52469.0,STARLINK-3828,PAYLOAD,2023-06-07 09:42:47,15.08836874,0.0001083,53.2168,256.5096,75.3402,284.771,6.1934e-05,6.98e-06,0.0,0 STARLINK-3828,1 52469U 22049U   23158.40472086  .00000698  00000-0  61934-4 0  9993,2 52469  53.2168 256.5096 0001083  75.3402 284.7710 15.08836874 60497,6917.89,95.438,540.504,539.006,0.0
52469.0,STARLINK-3828,PAYLOAD,2023-06-08 12:44:20,15.0884345,9.79e-05,53.2172,251.4532,98.9436,261.1667,5.9865e-05,6.65e-06,0.0,0 STARLINK-3828,1 52469U 22049U   23159.53079541  .00000665  00000-0  59865-4 0  9991,2 52469  53.2172 251.4532 0000979  98.9436 261.1667 15.08843450 60502,6917.87,95.437,540.412,539.058,0.0
52469.0,STARLINK-3828,PAYLOAD,2023-06-09 12:35:07,15.08842334,0.0001099,53.2167,246.9937,88.9817,271.1301,8.1269e-05,1.006e-05,0.0,0 STARLINK-3828,1 52469U 22049U   23160.52439593  .00001006  00000-0  81269-4 0  9992,2 52469  53.2167 246.9937 0001099  88.9817 271.1301 15.08842334 60652,6917.873,95.437,540.499,538.978,0.0
52469.0,STARLINK-3828,PAYLOAD,2023-06-10 09:15:09,15.08834011,0.000102,53.2165,243.1292,87.3875,272.7234,9.4284e-06,-1.38e-06,0.0,0 STARLINK-3828,1 52469U 22049U   23161.38552450 -.00000138  00000-0  94284-5 0  9993,2 52469  53.2165 243.1292 0001020  87.3875 272.7234 15.08834011 60941,6917.899,95.438,540.469,539.058,0.0
52469.0,STARLINK-3828,PAYLOAD,2023-06-10 12:25:55,15.08833902,8.91e-05,53.2168,242.5337,86.1534,273.956,2.778e-05,1.54e-06,0.0,0 STARLINK-3828,1 52469U 22049U   23161.51800404  .00000154  00000-0  27780-4 0  9996,2 52469  53.2168 242.5337 0000891  86.1534 273.9560 15.08833902 60809,6917.899,95.438,540.38,539.148,0.0
52469.0,STARLINK-3828,PAYLOAD,2023-06-10 15:36:41,15.08840921,9.48e-05,53.2166,241.9383,83.621,276.489,6.3959e-06,-1.86e-06,0.0,0 STARLINK-3828,1 52469U 22049U   23161.65048011 -.00000186  00000-0  63959-5 0  9994,2 52469  53.2166 241.9383 0000948  83.6210 276.4890 15.08840921 60989,6917.878,95.437,540.398,539.087,0.0
52469.0,STARLINK-3828,PAYLOAD,2023-06-11 13:52:05,15.08845145,0.000103,53.2171,237.7745,78.8903,281.2205,-3.2262e-05,-8.01e-06,0.0,0 STARLINK-3828,1 52469U 22049U   23162.57784087 -.00000801  00000-0 -32262-4 0  9993,2 52469  53.2171 237.7745 0001030  78.8903 281.2205 15.08845145 60963,6917.865,95.437,540.442,539.017,0.0
52469.0,STARLINK-3828,PAYLOAD,2023-06-11 21:49:01,15.08842378,9.87e-05,53.2164,236.2894,88.9239,271.1866,6.4492e-05,7.39e-06,0.0,0 STARLINK-3828,1 52469U 22049U   23162.90903955  .00000739  00000-0  64492-4 0  9995,2 52469  53.2164 236.2894 0000987  88.9239 271.1866 15.08842378 61011,6917.873,95.437,540.421,539.055,0.0
52469.0,STARLINK-3828,PAYLOAD,2023-06-12 04:10:33,15.08837064,0.0001055,53.2162,235.1005,95.2031,264.9081,5.829e-05,6.4e-06,0.0,0 STARLINK-3828,1 52469U 22049U   23163.17400397  .00000640  00000-0  58290-4 0  9997,2 52469  53.2162 235.1005 0001055  95.2031 264.9081 15.08837064 61216,6917.889,95.438,540.484,539.025,0.0
52469.0,STARLINK-3828,PAYLOAD,2023-06-12 21:39:48,15.08837494,0.0001084,53.2172,231.8302,94.5246,265.587,6.4988e-05,7.47e-06,0.0,0 STARLINK-3828,1 52469U 22049U   23163.90264522  .00000747  00000-0  64988-4 0  9995,2 52469  53.2172 231.8302 0001084  94.5246 265.5870 15.08837494 61166,6917.888,95.438,540.503,539.003,0.0
52469.0,STARLINK-3828,PAYLOAD,2023-06-13 21:30:35,15.08835104,0.0001058,53.2156,227.3685,89.4696,270.6417,3.8497e-05,3.25e-06,0.0,0 STARLINK-3828,1 52469U 22049U   23164.89624900  .00000325  00000-0  38497-4 0  9992,2 52469  53.2156 227.3685 0001058  89.4696 270.6417 15.08835104 61312,6917.895,95.438,540.492,539.028,0.0
52469.0,STARLINK-3828,PAYLOAD,2023-06-14 03:52:08,15.08837814,0.0001148,53.2166,226.1786,87.8845,272.2278,6.7137e-05,7.81e-06,0.0,0 STARLINK-3828,1 52469U 22049U   23165.16120690  .00000781  00000-0  67137-4 0  9999,2 52469  53.2166 226.1786 0001148  87.8845 272.2278 15.08837814 61357,6917.887,95.438,540.546,538.958,0.0
52469.0,STARLINK-3828,PAYLOAD,2023-06-14 21:21:22,15.08840809,0.0001124,53.2165,222.9069,88.8281,271.284,6.5195e-05,7.5e-06,0.0,0 STARLINK-3828,1 52469U 22049U   23165.88984512  .00000750  00000-0  65195-4 0  9997,2 52469  53.2165 222.9069 0001124  88.8281 271.2840 15.08840809 61625,6917.878,95.438,540.52,538.965,0.0
52469.0,STARLINK-3828,PAYLOAD,2023-06-15 10:04:28,15.08838248,0.000121,53.217,220.5302,79.4962,280.6167,4.4065e-05,4.13e-06,0.0,0 STARLINK-3828,1 52469U 22049U   23166.41976905  .00000413  00000-0  44065-4 0  9993,2 52469  53.2170 220.5302 0001210  79.4962 280.6167 15.08838248 61544,6917.886,95.438,540.588,538.914,0.0
52469.0,STARLINK-3828,PAYLOAD,2023-06-15 13:15:14,15.08840683,0.0001199,53.2166,219.9345,83.4524,276.6605,6.7744e-05,7.9e-06,0.0,0 STARLINK-3828,1 52469U 22049U   23166.55224672  .00000790  00000-0  67744-4 0  9992,2 52469  53.2166 219.9345 0001199  83.4524 276.6605 15.08840683 61563,6917.878,95.438,540.573,538.914,0.0
52469.0,STARLINK-3828,PAYLOAD,2023-06-15 21:12:09,15.0883826,0.0001175,53.2162,218.4471,84.799,275.3136,4.5526e-05,4.37e-06,0.0,0 STARLINK-3828,1 52469U 22049U   23166.88344877  .00000437  00000-0  45526-4 0  9990,2 52469  53.2162 218.4471 0001175  84.7990 275.3136 15.08838260 61774,6917.886,95.438,540.564,538.938,0.0
52469.0,STARLINK-3828,PAYLOAD,2023-06-16 09:55:13,15.08861558,0.0001084,53.2155,216.0679,82.2063,277.9052,0.00019966,2.893e-05,0.0,0 STARLINK-3828,1 52469U 22049U   23167.41334682  .00002893  00000-0  19966-3 0  9999,2 52469  53.2155 216.0679 0001084  82.2063 277.9052 15.08861558 61853,6917.814,95.436,540.429,538.93,0.0
52469.0,STARLINK-3828,PAYLOAD,2023-06-17 09:46:02,15.08829734,6.63e-05,53.2152,211.6058,94.007,266.0998,-2.701e-05,-7.17e-06,0.0,0 STARLINK-3828,1 52469U 22049U   23168.40697032 -.00000717  00000-0 -27010-4 0  9995,2 52469  53.2152 211.6058 0000663  94.0070 266.0998 15.08829734 62009,6917.912,95.438,540.235,539.318,0.0
52469.0,STARLINK-3828,PAYLOAD,2023-06-17 19:18:21,15.08833677,9.48e-05,53.2159,209.8225,89.4322,270.6778,-4.4266e-05,-9.92e-06,0.0,0 STARLINK-3828,1 52469U 22049U   23168.80440991 -.00000992  00000-0 -44266-4 0  9996,2 52469  53.2159 209.8225 0000948  89.4322 270.6778 15.08833677 61901,6917.9,95.438,540.421,539.109,0.0
52469.0,STARLINK-3828,PAYLOAD,2023-06-18 09:36:49,15.08839576,0.0001026,53.2165,207.1479,96.5294,263.5815,-9.048e-05,-1.727e-05,0.0,0 STARLINK-3828,1 52469U 22049U   23169.40056941 -.00001727  00000-0 -90480-4 0  9997,2 52469  53.2165 207.1479 0001026  96.5294 263.5815 15.08839576 62150,6917.882,95.438,540.456,539.037,0.0
52469.0,STARLINK-3828,PAYLOAD,2023-06-18 19:09:07,15.08845261,0.0001034,53.2167,205.3638,94.363,265.7481,-0.00012867,-2.335e-05,0.0,0 STARLINK-3828,1 52469U 22049U   23169.79800672 -.00002335  00000-0 -12867-3 0  9995,2 52469  53.2167 205.3638 0001034  94.3630 265.7481 15.08845261 62058,6917.864,95.437,540.445,539.014,0.0
52469.0,STARLINK-3828,PAYLOAD,2023-06-19 11:02:59,15.08835545,9.97e-05,53.2162,202.3897,99.7448,260.3657,0.00015392,2.162e-05,0.0,0 STARLINK-3828,1 52469U 22049U   23170.46040831  .00002162  00000-0  15392-3 0  9996,2 52469  53.2162 202.3897 0000997  99.7448 260.3657 15.08835545 62319,6917.894,95.438,540.449,539.069,0.0
52469.0,STARLINK-3828,PAYLOAD,2023-06-19 18:59:55,15.0883446,9.86e-05,53.2162,200.9031,99.3839,260.7265,0.00012367,1.681e-05,0.0,0 STARLINK-3828,1 52469U 22049U   23170.79161127  .00001681  00000-0  12367-3 0  9998,2 52469  53.2162 200.9031 0000986  99.3839 260.7265 15.08834460 62203,6917.897,95.438,540.444,539.08,0.0
52469.0,STARLINK-3828,PAYLOAD,2023-06-20 01:21:28,15.08832848,0.0001,53.2162,199.7138,97.1111,262.9995,9.8341e-05,1.277e-05,0.0,0 STARLINK-3828,1 52469U 22049U   23171.05657436  .00001277  00000-0  98341-4 0  9999,2 52469  53.2162 199.7138 0001000  97.1111 262.9995 15.08832848 62407,6917.902,95.438,540.459,539.075,0.0
52469.0,STARLINK-3828,PAYLOAD,2023-06-21 09:09:10,15.0884291,0.0001001,53.2162,193.7666,93.4316,266.6791,6.8285e-05,7.99e-06,0.0,0 STARLINK-3828,1 52469U 22049U   23172.38137162  .00000799  00000-0  68285-4 0  9997,2 52469  53.2162 193.7666 0001001  93.4316 266.6791 15.08842910 62602,6917.871,95.437,540.429,539.044,0.0
52469.0,STARLINK-3828,PAYLOAD,2023-06-21 18:41:29,15.08842218,0.0001044,53.2164,191.9823,87.0901,273.021,5.9597e-05,6.61e-06,0.0,0 STARLINK-3828,1 52469U 22049U   23172.77881208  .00000661  00000-0  59597-4 0  9991,2 52469  53.2164 191.9823 0001044  87.0901 273.0210 15.08842218 62503,6917.874,95.437,540.461,539.016,0.0
52469.0,STARLINK-3828,PAYLOAD,2023-06-22 18:32:16,15.0884021,9.28e-05,53.2158,187.5206,91.8595,268.2504,2.1873e-05,6e-07,0.0,0 STARLINK-3828,1 52469U 22049U   23173.77241506  .00000060  00000-0  21873-4 0  9992,2 52469  53.2158 187.5206 0000928  91.8595 268.2504 15.08840210 62810,6917.88,95.438,540.387,539.103,0.0
